OBJECT_NAME,OBJECT_ID,EPOCH,MEAN_MOTION,ECCENTRICITY,INCLINATION,RA_OF_ASC_NODE,ARG_OF_PERICENTER,MEAN_ANOMALY,EPHEMERIS_TYPE,CLASSIFICATION_TYPE,NORAD_CAT_ID,ELEMENT_SET_NO,REV_AT_EPOCH,BSTAR,MEAN_MOTION_DOT,MEAN_MOTION_DDOT
SAUDISAT 2,2004-025F,2026-06-07T23:05:14.423136,14.56678716,.0024008,98.5506,158.7055,327.6512,32.3212,0,U,28371,999,16440,.82276E-4,.319E-5,0
COSMOS 2407,2004-028A,2026-06-08T03:15:42.033024,13.76334065,.0037791,82.9609,81.5375,278.2131,201.0889,0,U,28380,999,9863,.5312E-4,.67E-6,0
COSMOS 2414,2005-002A,2026-06-08T02:13:44.787072,13.87925871,.004013,82.9506,50.5260,357.4444,2.6508,0,U,28521,999,8255,.3744E-4,.6E-6,0
INMARSAT 4-F1,2005-009A,2026-06-07T19:24:26.464032,1.00272574,.0002755,5.1547,42.7373,36.3105,286.3956,0,U,28628,999,7757,0,.46E-6,0
SJ-7,2005-024A,2026-06-08T00:21:13.027968,15.21404704,.0017095,97.7293,188.8723,67.7406,292.5640,0,U,28737,999,14663,.40786E-3,.9117E-4,0
CUBESAT XI-V,2005-043F,2026-06-07T22:59:29.763168,14.72607812,.0013088,98.2976,314.3867,231.5140,128.4893,0,U,28895,999,10039,.2618E-3,.1615E-4,0
HINODE (SOLAR-B),2006-041A,2026-06-08T01:20:10.093632,14.68610972,.001644,98.0547,175.3428,321.0348,38.9672,0,U,29479,999,5353,.15323E-3,.843E-5,0
SHIJIAN-6 02B (SJ-6 02B),2006-046B,2026-06-08T05:10:29.883360,15.01354515,.0014711,97.7162,188.3297,86.3603,273.9303,0,U,29506,999,6939,.12463E-3,.1548E-4,0
DMSP 5D-3 F17 (USA 191),2006-050A,2026-06-08T04:32:40.304832,14.14991901,.0011324,98.7377,165.9435,82.4895,277.7565,0,U,29522,999,1115,.55433E-4,.64E-6,0
LAPAN-TUBSAT,2007-001A,2026-06-08T05:32:40.513344,14.85944228,.0011171,98.1347,158.2536,209.5197,150.5388,0,U,29709,999,4982,.14171E-3,.118E-4,0
HAIYANG-1B,2007-010A,2026-06-08T04:40:49.322784,14.31024649,.0012513,98.3490,141.3892,224.4780,135.5400,0,U,31113,999,99934,.54652E-4,.102E-5,0
CARTOSAT-2A,2008-021A,2026-06-08T04:26:37.874112,14.79227452,.0012673,97.7634,208.2009,135.1724,225.0513,0,U,32783,999,97747,.16287E-3,.1161E-4,0
CUTE-1.7+APD II (CO-65),2008-021C,2026-06-08T04:00:03.835584,15.09365068,.0010361,97.8271,140.3984,65.0809,295.1495,0,U,32785,999,98383,.34706E-3,.5482E-4,0
SEEDS II (CO-66),2008-021J,2026-06-07T22:18:37.460736,15.32435639,.0002465,97.7519,156.3875,31.6806,328.4582,0,U,32791,999,98587,.63151E-3,.19726E-3,0
YUBILEINY (RS30),2008-025A,2026-06-08T03:58:10.501248,12.43178714,.0019249,82.5047,1.0532,334.1984,25.8134,0,U,32953,999,81857,-.17633E-3,-.15E-6,0
FENGYUN 3A,2008-026A,2026-06-08T02:18:06.535008,14.19569313,.0009205,98.6881,100.0993,147.7099,212.4642,0,U,32958,999,93411,.6135E-4,.86E-6,0
HUANJING 1A (HJ-1A),2008-041A,2026-06-08T04:45:40.648896,14.83969412,.0019167,97.6686,145.3852,163.0235,197.1625,0,U,33320,999,95707,.247E-3,.201E-4,0
HUANJING 1B (HJ-1B),2008-041B,2026-06-08T05:32:26.138976,14.83301156,.0035192,97.6522,148.6149,210.9656,148.9484,0,U,33321,999,95708,.69373E-4,.521E-5,0
SHIJIAN-6 03A (SJ-6 03A),2008-053A,2026-06-08T03:28:29.983872,15.17079349,.0012505,97.8415,192.1513,49.6036,310.6285,0,U,33408,999,96159,.27594E-3,.5403E-4,0
SHIJIAN-6 03B (SJ-6 03B),2008-053B,2026-06-08T04:28:31.292256,15.04286981,.0021053,97.8587,178.9290,72.7447,287.6080,0,U,33409,999,96139,.14286E-3,.1933E-4,0
CHUANGXIN 1-02 (CX-1-02),2008-056B,2026-06-08T03:10:41.233152,14.30151023,.0014431,98.6138,185.4895,162.1263,198.0430,0,U,33434,999,91732,.24682E-4,.2E-6,0
